[{"OBJECT_NAME":"STARLINK-32754","OBJECT_ID":"2025-004S","EPOCH":"2026-03-09T11:06:41.216256","MEAN_MOTION":15.27589937,"ECCENTRICITY":0.00017795,"INCLINATION":42.9981,"RA_OF_ASC_NODE":221.1752,"ARG_OF_PERICENTER":292.616,"MEAN_ANOMALY":67.4503,"EPHEMERIS_TYPE":0,"CLASSIFICATION_TYPE":"U","NORAD_CAT_ID":62527,"ELEMENT_SET_NO":999,"REV_AT_EPOCH":6547,"BSTAR":0.0011224251,"MEAN_MOTION_DOT":0.00030763,"MEAN_MOTION_DDOT":0},{"OBJECT_NAME":"COSMOS 252 DEB","OBJECT_ID":"1968-097BM","EPOCH":"2026-03-09T19:23:01.251168","MEAN_MOTION":14.84266968,"ECCENTRICITY":0.01906429,"INCLINATION":62.1994,"RA_OF_ASC_NODE":322.7421,"ARG_OF_PERICENTER":219.9576,"MEAN_ANOMALY":138.735,"EPHEMERIS_TYPE":0,"CLASSIFICATION_TYPE":"U","NORAD_CAT_ID":3900,"ELEMENT_SET_NO":999,"REV_AT_EPOCH":87477,"BSTAR":0.00094776544,"MEAN_MOTION_DOT":0.00010849,"MEAN_MOTION_DDOT":0}]
